{
    "links": {
        "self": "http://www.neowsapp.com/rest/v1/neo/3797910?api_key=iIulBulltgU6a56xZRHN4H3l9WmuAYTsLGpBGhQ2"
    },
    "id": "3797910",
    "neo_reference_id": "3797910",
    "name": "(2018 BE5)",
    "designation": "2018 BE5",
    "nasa_jpl_url": "http://ssd.jpl.nasa.gov/sbdb.cgi?sstr=3797910",
    "absolute_magnitude_h": 24.5,
    "estimated_diameter": {
        "kilometers": {
            "estimated_diameter_min": 0.0334622374,
            "estimated_diameter_max": 0.0748238376
        },
        "meters": {
            "estimated_diameter_min": 33.4622374455,
            "estimated_diameter_max": 74.8238376074
        },
        "miles": {
            "estimated_diameter_min": 0.0207924639,
            "estimated_diameter_max": 0.0464933628
        },
        "feet": {
            "estimated_diameter_min": 109.7842471007,
            "estimated_diameter_max": 245.4850393757
        }
    },
    "is_potentially_hazardous_asteroid": false,
    "close_approach_data": [
        {
            "close_approach_date": "1950-07-25",
            "close_approach_date_full": "1950-Jul-25 21:19",
            "epoch_date_close_approach": -613363260000,
            "relative_velocity": {
                "kilometers_per_second": "14.819282155",
                "kilometers_per_hour": "53349.4157581663",
                "miles_per_hour": "33149.2522526228"
            },
            "miss_distance": {
                "astronomical": "0.0538340218",
                "lunar": "20.9414344802",
                "kilometers": "8053454.994813566",
                "miles": "5004184.8866405708"
            },
            "orbiting_body": "Earth"
        },
        {
            "close_approach_date": "1986-07-05",
            "close_approach_date_full": "1986-Jul-05 15:33",
            "epoch_date_close_approach": 520961580000,
            "relative_velocity": {
                "kilometers_per_second": "26.6230917114",
                "kilometers_per_hour": "95843.1301608683",
                "miles_per_hour": "59553.193849124"
            },
            "miss_distance": {
                "astronomical": "0.4557517492",
                "lunar": "177.2874304388",
                "kilometers": "68179490.929094204",
                "miles": "42364771.1827958552"
            },
            "orbiting_body": "Earth"
        },
        {
            "close_approach_date": "2018-01-14",
            "close_approach_date_full": "2018-Jan-14 19:43",
            "epoch_date_close_approach": 1515958980000,
            "relative_velocity": {
                "kilometers_per_second": "14.9364463866",
                "kilometers_per_hour": "53771.2069918734",
                "miles_per_hour": "33411.336922256"
            },
            "miss_distance": {
                "astronomical": "0.0516403636",
                "lunar": "20.0881014404",
                "kilometers": "7725288.400585532",
                "miles": "4800271.6205710616"
            },
            "orbiting_body": "Earth"
        }
    ],
    "orbital_data": {
        "orbit_id": "2",
        "orbit_determination_date": "2018-01-27 06:55:54",
        "first_observation_date": "2018-01-22",
        "last_observation_date": "2018-01-25",
        "data_arc_in_days": 3,
        "observations_used": 37,
        "orbit_uncertainty": "8",
        "minimum_orbit_intersection": ".00696515",
        "jupiter_tisserand_invariant": "4.764",
        "epoch_osculation": "2458142.5",
        "eccentricity": ".45907465925086",
        "semi_major_axis": "1.346263212956152",
        "inclination": "6.111384020560188",
        "ascending_node_longitude": "114.9295935247719",
        "orbital_period": "570.5495865094997",
        "perihelion_distance": ".7282278872063387",
        "perihelion_argument": "276.1203065453174",
        "aphelion_distance": "1.964298538705966",
        "perihelion_time": "2458081.031381146429",
        "mean_anomaly": "38.78488971075105",
        "mean_motion": ".6309705738328599",
        "equinox": "J2000",
        "orbit_class": {
            "orbit_class_type": "APO",
            "orbit_class_description": "Near-Earth asteroid orbits which cross the Earth’s orbit similar to that of 1862 Apollo",
            "orbit_class_range": "a (semi-major axis) > 1.0 AU; q (perihelion) < 1.017 AU"
        }
    },
    "is_sentry_object": false
}